[{"OBJECT_NAME":"HAWK-2B","OBJECT_ID":"2021-006CZ","EPOCH":"2026-03-09T16:13:51.664224","MEAN_MOTION":15.33301353,"ECCENTRICITY":0.00071021,"INCLINATION":97.2334,"RA_OF_ASC_NODE":114.114,"ARG_OF_PERICENTER":185.9063,"MEAN_ANOMALY":174.2098,"EPHEMERIS_TYPE":0,"CLASSIFICATION_TYPE":"U","NORAD_CAT_ID":47508,"ELEMENT_SET_NO":999,"REV_AT_EPOCH":28424,"BSTAR":0.00029650607,"MEAN_MOTION_DOT":9.474e-5,"MEAN_MOTION_DDOT":0},{"OBJECT_NAME":"STARLINK-32721","OBJECT_ID":"2024-251G","EPOCH":"2026-03-09T23:21:34.614720","MEAN_MOTION":15.30215784,"ECCENTRICITY":7.991e-5,"INCLINATION":53.159,"RA_OF_ASC_NODE":333.8584,"ARG_OF_PERICENTER":93.8735,"MEAN_ANOMALY":266.2357,"EPHEMERIS_TYPE":0,"CLASSIFICATION_TYPE":"U","NORAD_CAT_ID":62438,"ELEMENT_SET_NO":999,"REV_AT_EPOCH":6793,"BSTAR":0.0011678628,"MEAN_MOTION_DOT":0.00034407,"MEAN_MOTION_DDOT":0}]
